{"type": "FeatureCollection", "features": [ {"type": "Feature", "properties": {"norad_id": 34570, "name": "COSMOS 2251 DEB", "group": "cosmos-2251-debris", "lat": 1.6273849993062752, "lon": -135.3030278363033, "alt_km": 931.7608055145074, "timestamp": "2025-12-09T07:41:33.606302+00:00", "meta": {"OBJECT_NAME": "COSMOS 2251 DEB", "OBJECT_ID": "1993-036VG", "EPOCH": "2025-12-08T23:12:34.943040", "MEAN_MOTION": 13.99809889, "ECCENTRICITY": 0.0190225, "INCLINATION": 73.9576, "RA_OF_ASC_NODE": 224.8431, "ARG_OF_PERICENTER": 108.182, "MEAN_ANOMALY": 275.239, "EPHEMERIS_TYPE": 0, "CLASSIFICATION_TYPE": "U", "NORAD_CAT_ID": 34570, "ELEMENT_SET_NO": 999, "REV_AT_EPOCH": 85548, "BSTAR": 0.00062462673, "MEAN_MOTION_DOT": 1.048e-05, "MEAN_MOTION_DDOT": 0}, "tle": {"line1": "1 34570U 93036VG  25342.96707110  .00001048  00000+0  62463-3 0  9993", "line2": "2 34570  73.9576 224.8431 0190225 108.1820 275.2390 13.99809889855483"}}, "geometry": {"type": "Point", "coordinates": [-135.3030278363033, 1.6273849993062752]}}, {"type": "Feature", "properties": {"norad_id": 34571, "name": "COSMOS 2251 DEB", "group": "cosmos-2251-debris", "lat": -25.885129368970816, "lon": -179.14286263392452, "alt_km": 749.8888145416804, "timestamp": "2025-12-09T07:41:33.606313+00:00", "meta": {"OBJECT_NAME": "COSMOS 2251 DEB", "OBJECT_ID": "1993-036VH", "EPOCH": "2025-12-08T00:19:43.274784", "MEAN_MOTION": 14.48697899, "ECCENTRICITY": 0.00665855, "INCLINATION": 74.0397, "RA_OF_ASC_NODE": 191.2872, "ARG_OF_PERICENTER": 227.3377, "MEAN_ANOMALY": 132.2161, "EPHEMERIS_TYPE": 0, "CLASSIFICATION_TYPE": "U", "NORAD_CAT_ID": 34571, "ELEMENT_SET_NO": 999, "REV_AT_EPOCH": 87225, "BSTAR": 0.0024060709, "MEAN_MOTION_DOT": 9.309e-05, "MEAN_MOTION_DDOT": 0}, "tle": {"line1": "1 34571U 93036VH  25342.01369531  .00009309  00000+0  24061-2 0  9990", "line2": "2 34571  74.0397 191.2872 0066585 227.3377 132.2161 14.48697899872258"}}, "geometry": {"type": "Point", "coordinates": [-179.14286263392452, -25.885129368970816]}}, {"type": "Feature", "properties": {"norad_id": 34572, "name": "COSMOS 2251 DEB", "group": "cosmos-2251-debris", "lat": -0.0707875122400586, "lon": -58.04238936049023, "alt_km": 685.3905276547248, "timestamp": "2025-12-09T07:41:33.606323+00:00", "meta": {"OBJECT_NAME": "COSMOS 2251 DEB", "OBJECT_ID": "1993-036VJ", "EPOCH": "2025-12-08T19:57:57.467232", "MEAN_MOTION": 14.49880112, "ECCENTRICITY": 0.00633866, "INCLINATION": 74.0103, "RA_OF_ASC_NODE": 122.8558, "ARG_OF_PERICENTER": 197.3594, "MEAN_ANOMALY": 313.4756, "EPHEMERIS_TYPE": 0, "CLASSIFICATION_TYPE": "U", "NORAD_CAT_ID": 34572, "ELEMENT_SET_NO": 999, "REV_AT_EPOCH": 87321, "BSTAR": 0.0045546046, "MEAN_MOTION_DOT": 0.00018073, "MEAN_MOTION_DDOT": 0}, "tle": {"line1": "1 34572U 93036VJ  25342.83191513  .00018073  00000+0  45546-2 0  9993", "line2": "2 34572  74.0103 122.8558 0063386 197.3594 313.4756 14.49880112873211"}}, "geometry": {"type": "Point", "coordinates": [-58.04238936049023, -0.0707875122400586]}}, {"type": "Feature", "properties": {"norad_id": 34574, "name": "COSMOS 2251 DEB", "group": "cosmos-2251-debris", "lat": 4.988486334864575, "lon": -131.67195394228548, "alt_km": 671.4378357857167, "timestamp": "2025-12-09T07:41:33.606333+00:00", "meta": {"OBJECT_NAME": "COSMOS 2251 DEB", "OBJECT_ID": "1993-036VL", "EPOCH": "2025-12-08T13:28:39.083808", "MEAN_MOTION": 14.70533696, "ECCENTRICITY": 0.0066851, "INCLINATION": 74.0692, "RA_OF_ASC_NODE": 51.2259, "ARG_OF_PERICENTER": 73.5607, "MEAN_ANOMALY": 44.1457, "EPHEMERIS_TYPE": 0, "CLASSIFICATION_TYPE": "U", "NORAD_CAT_ID": 34574, "ELEMENT_SET_NO": 999, "REV_AT_EPOCH": 88717, "BSTAR": 0.001243, "MEAN_MOTION_DOT": 7.788e-05, "MEAN_MOTION_DDOT": 0}, "tle": {"line1": "1 34574U 93036VL  25342.56156347  .00007788  00000+0  12430-2 0  9998", "line2": "2 34574  74.0692  51.2259 0066851  73.5607  44.1457 14.70533696887171"}}, "geometry": {"type": "Point", "coordinates": [-131.67195394228548, 4.988486334864575]}}, {"type": "Feature", "properties": {"norad_id": 34576, "name": "COSMOS 2251 DEB", "group": "cosmos-2251-debris", "lat": -28.653044008533925, "lon": 135.6745680687567, "alt_km": 710.0435589848894, "timestamp": "2025-12-09T07:41:33.606344+00:00", "meta": {"OBJECT_NAME": "COSMOS 2251 DEB", "OBJECT_ID": "1993-036VN", "EPOCH": "2025-12-08T12:17:31.843968", "MEAN_MOTION": 14.55375764, "ECCENTRICITY": 0.00080493, "INCLINATION": 74.0338, "RA_OF_ASC_NODE": 146.2054, "ARG_OF_PERICENTER": 280.7593, "MEAN_ANOMALY": 135.8263, "EPHEMERIS_TYPE": 0, "CLASSIFICATION_TYPE": "U", "NORAD_CAT_ID": 34576, "ELEMENT_SET_NO": 999, "REV_AT_EPOCH": 88405, "BSTAR": 0.0012955401, "MEAN_MOTION_DOT": 5.603e-05, "MEAN_MOTION_DDOT": 0}, "tle": {"line1": "1 34576U 93036VN  25342.51217412  .00005603  00000+0  12955-2 0  9992", "line2": "2 34576  74.0338 146.2054 0008049 280.7593 135.8263 14.55375764884059"}}, "geometry": {"type": "Point", "coordinates": [135.6745680687567, -28.653044008533925]}}, {"type": "Feature", "properties": {"norad_id": 34579, "name": "COSMOS 2251 DEB", "group": "cosmos-2251-debris", "lat": -45.16560851525653, "lon": -146.45462508631414, "alt_km": 728.3145389352594, "timestamp": "2025-12-09T07:41:33.606354+00:00", "meta": {"OBJECT_NAME": "COSMOS 2251 DEB", "OBJECT_ID": "1993-036VR", "EPOCH": "2025-12-08T18:55:19.657344", "MEAN_MOTION": 14.4529221, "ECCENTRICITY": 0.00275783, "INCLINATION": 74.0532, "RA_OF_ASC_NODE": 231.249, "ARG_OF_PERICENTER": 300.4704, "MEAN_ANOMALY": 124.5641, "EPHEMERIS_TYPE": 0, "CLASSIFICATION_TYPE": "U", "NORAD_CAT_ID": 34579, "ELEMENT_SET_NO": 999, "REV_AT_EPOCH": 88117, "BSTAR": 0.00078995323, "MEAN_MOTION_DOT": 2.76e-05, "MEAN_MOTION_DDOT": 0}, "tle": {"line1": "1 34579U 93036VR  25342.78842196  .00002760  00000+0  78995-3 0  9995", "line2": "2 34579  74.0532 231.2490 0027578 300.4704 124.5641 14.45292210881177"}}, "geometry": {"type": "Point", "coordinates": [-146.45462508631414, -45.16560851525653]}}, {"type": "Feature", "properties": {"norad_id": 34582, "name": "COSMOS 2251 DEB", "group": "cosmos-2251-debris", "lat": -73.3733487387343, "lon": -154.9193502774837, "alt_km": 768.8214334940776, "timestamp": "2025-12-09T07:41:33.606364+00:00", "meta": {"OBJECT_NAME": "COSMOS 2251 DEB", "OBJECT_ID": "1993-036VU", "EPOCH": "2025-12-08T22:06:19.650528", "MEAN_MOTION": 14.43291549, "ECCENTRICITY": 0.00476449, "INCLINATION": 74.0202, "RA_OF_ASC_NODE": 279.4779, "ARG_OF_PERICENTER": 30.4908, "MEAN_ANOMALY": 329.9002, "EPHEMERIS_TYPE": 0, "CLASSIFICATION_TYPE": "U", "NORAD_CAT_ID": 34582, "ELEMENT_SET_NO": 999, "REV_AT_EPOCH": 87892, "BSTAR": 0.00099066493, "MEAN_MOTION_DOT": 3.358e-05, "MEAN_MOTION_DDOT": 0}, "tle": {"line1": "1 34582U 93036VU  25342.92106077  .00003358  00000+0  99066-3 0  9992", "line2": "2 34582  74.0202 279.4779 0047644  30.4908 329.9002 14.43291549878924"}}, "geometry": {"type": "Point", "coordinates": [-154.9193502774837, -73.3733487387343]}}, {"type": "Feature", "properties": {"norad_id": 34588, "name": "COSMOS 2251 DEB", "group": "cosmos-2251-debris", "lat": -13.543037652520786, "lon": -89.36046476496749, "alt_km": 743.1613393907364, "timestamp": "2025-12-09T07:41:33.606374+00:00", "meta": {"OBJECT_NAME": "COSMOS 2251 DEB", "OBJECT_ID": "1993-036WA", "EPOCH": "2025-12-08T20:22:30.199296", "MEAN_MOTION": 14.42004185, "ECCENTRICITY": 0.00190896, "INCLINATION": 74.0441, "RA_OF_ASC_NODE": 275.4645, "ARG_OF_PERICENTER": 328.549, "MEAN_ANOMALY": 90.3806, "EPHEMERIS_TYPE": 0, "CLASSIFICATION_TYPE": "U", "NORAD_CAT_ID": 34588, "ELEMENT_SET_NO": 999, "REV_AT_EPOCH": 87894, "BSTAR": 0.00095819458, "MEAN_MOTION_DOT": 3.125e-05, "MEAN_MOTION_DDOT": 0}, "tle": {"line1": "1 34588U 93036WA  25342.84896064  .00003125  00000+0  95819-3 0  9995", "line2": "2 34588  74.0441 275.4645 0019089 328.5490  90.3806 14.42004185878942"}}, "geometry": {"type": "Point", "coordinates": [-89.36046476496749, -13.543037652520786]}}, {"type": "Feature", "properties": {"norad_id": 34589, "name": "COSMOS 2251 DEB", "group": "cosmos-2251-debris", "lat": 20.165278324170888, "lon": -124.2201140463488, "alt_km": 1105.3546429015687, "timestamp": "2025-12-09T07:41:33.606384+00:00", "meta": {"OBJECT_NAME": "COSMOS 2251 DEB", "OBJECT_ID": "1993-036WB", "EPOCH": "2025-12-08T06:57:07.176960", "MEAN_MOTION": 13.86047375, "ECCENTRICITY": 0.02517547, "INCLINATION": 73.9253, "RA_OF_ASC_NODE": 63.614, "ARG_OF_PERICENTER": 7.8505, "MEAN_ANOMALY": 47.8863, "EPHEMERIS_TYPE": 0, "CLASSIFICATION_TYPE": "U", "NORAD_CAT_ID": 34589, "ELEMENT_SET_NO": 999, "REV_AT_EPOCH": 84650, "BSTAR": 0.00039289139, "MEAN_MOTION_DOT": 5.56e-06, "MEAN_MOTION_DDOT": 0}, "tle": {"line1": "1 34589U 93036WB  25342.28966640  .00000556  00000+0  39289-3 0  9996", "line2": "2 34589  73.9253  63.6140 0251754   7.8505  47.8863 13.86047375846502"}}, "geometry": {"type": "Point", "coordinates": [-124.2201140463488, 20.165278324170888]}}, {"type": "Feature", "properties": {"norad_id": 34590, "name": "COSMOS 2251 DEB", "group": "cosmos-2251-debris", "lat": 14.90383395095721, "lon": -26.613330046000197, "alt_km": 705.1141740806888, "timestamp": "2025-12-09T07:41:33.606395+00:00", "meta": {"OBJECT_NAME": "COSMOS 2251 DEB", "OBJECT_ID": "1993-036WC", "EPOCH": "2025-12-08T17:36:12.839616", "MEAN_MOTION": 14.54819507, "ECCENTRICITY": 0.00679653, "INCLINATION": 74.0436, "RA_OF_ASC_NODE": 330.1295, "ARG_OF_PERICENTER": 100.9104, "MEAN_ANOMALY": 82.182, "EPHEMERIS_TYPE": 0, "CLASSIFICATION_TYPE": "U", "NORAD_CAT_ID": 34590, "ELEMENT_SET_NO": 999, "REV_AT_EPOCH": 89062, "BSTAR": 0.0002482129, "MEAN_MOTION_DOT": 1.069e-05, "MEAN_MOTION_DDOT": 0}, "tle": {"line1": "1 34590U 93036WC  25342.73348194  .00001069  00000+0  24821-3 0  9992", "line2": "2 34590  74.0436 330.1295 0067965 100.9104  82.1820 14.54819507890628"}}, "geometry": {"type": "Point", "coordinates": [-26.613330046000197, 14.90383395095721]}}]}